[{"OBJECT_NAME":"OBJECT B","OBJECT_ID":"2025-108B","EPOCH":"2026-03-09T22:57:20.569248","MEAN_MOTION":15.18732481,"ECCENTRICITY":0.00118477,"INCLINATION":97.4788,"RA_OF_ASC_NODE":145.8779,"ARG_OF_PERICENTER":0.6755,"MEAN_ANOMALY":359.4493,"EPHEMERIS_TYPE":0,"CLASSIFICATION_TYPE":"U","NORAD_CAT_ID":64088,"ELEMENT_SET_NO":999,"REV_AT_EPOCH":4430,"BSTAR":0.00058992219,"MEAN_MOTION_DOT":0.00012214,"MEAN_MOTION_DDOT":0},{"OBJECT_NAME":"COSMOS 2251 DEB","OBJECT_ID":"1993-036BWC","EPOCH":"2026-03-01T08:05:57.545376","MEAN_MOTION":14.97612795,"ECCENTRICITY":0.01162666,"INCLINATION":73.926,"RA_OF_ASC_NODE":298.2127,"ARG_OF_PERICENTER":162.8882,"MEAN_ANOMALY":197.6278,"EPHEMERIS_TYPE":0,"CLASSIFICATION_TYPE":"U","NORAD_CAT_ID":40799,"ELEMENT_SET_NO":999,"REV_AT_EPOCH":51153,"BSTAR":0.00042095283,"MEAN_MOTION_DOT":5.616e-5,"MEAN_MOTION_DDOT":0}]
